{
    "links": {
        "self": "http://www.neowsapp.com/rest/v1/neo/3879277?api_key=iIulBulltgU6a56xZRHN4H3l9WmuAYTsLGpBGhQ2"
    },
    "id": "3879277",
    "neo_reference_id": "3879277",
    "name": "(2019 UZ1)",
    "designation": "2019 UZ1",
    "nasa_jpl_url": "http://ssd.jpl.nasa.gov/sbdb.cgi?sstr=3879277",
    "absolute_magnitude_h": 23.6,
    "estimated_diameter": {
        "kilometers": {
            "estimated_diameter_min": 0.0506471459,
            "estimated_diameter_max": 0.1132504611
        },
        "meters": {
            "estimated_diameter_min": 50.6471458835,
            "estimated_diameter_max": 113.2504610618
        },
        "miles": {
            "estimated_diameter_min": 0.0314706677,
            "estimated_diameter_max": 0.0703705522
        },
        "feet": {
            "estimated_diameter_min": 166.1651821003,
            "estimated_diameter_max": 371.5566426699
        }
    },
    "is_potentially_hazardous_asteroid": false,
    "close_approach_data": [
        {
            "close_approach_date": "2019-09-30",
            "close_approach_date_full": "2019-Sep-30 10:36",
            "epoch_date_close_approach": 1569839760000,
            "relative_velocity": {
                "kilometers_per_second": "7.0507300921",
                "kilometers_per_hour": "25382.6283316661",
                "miles_per_hour": "15771.7781430844"
            },
            "miss_distance": {
                "astronomical": "0.1525391952",
                "lunar": "59.3377469328",
                "kilometers": "22819538.693434224",
                "miles": "14179403.8364073312"
            },
            "orbiting_body": "Earth"
        }
    ],
    "orbital_data": {
        "orbit_id": "4",
        "orbit_determination_date": "2019-11-24 04:53:11",
        "first_observation_date": "2019-10-20",
        "last_observation_date": "2019-10-31",
        "data_arc_in_days": 11,
        "observations_used": 27,
        "orbit_uncertainty": "8",
        "minimum_orbit_intersection": ".10547",
        "jupiter_tisserand_invariant": "3.364",
        "epoch_osculation": "2458777.5",
        "eccentricity": ".5255829043482838",
        "semi_major_axis": "2.340033166558198",
        "inclination": "1.895917720945997",
        "ascending_node_longitude": "345.8448850197813",
        "orbital_period": "1307.469137636772",
        "perihelion_distance": "1.110151738607229",
        "perihelion_argument": "10.12040516052537",
        "aphelion_distance": "3.569914594509167",
        "perihelion_time": "2458752.098168268242",
        "mean_anomaly": "6.994168474187997",
        "mean_motion": ".2753411072101432",
        "equinox": "J2000",
        "orbit_class": {
            "orbit_class_type": "AMO",
            "orbit_class_description": "Near-Earth asteroid orbits similar to that of 1221 Amor",
            "orbit_class_range": "1.017 AU < q (perihelion) < 1.3 AU"
        }
    },
    "is_sentry_object": false
}